NORAD_CAT_ID,OBJECT_NAME,OBJECT_TYPE,EPOCH,MEAN_MOTION,ECCENTRICITY,INCLINATION,RA_OF_ASC_NODE,ARG_OF_PERICENTER,MEAN_ANOMALY,BSTAR,MEAN_MOTION_DOT,MEAN_MOTION_DDOT,TLE_LINE0,TLE_LINE1,TLE_LINE2,SEMIMAJOR_AXIS,PERIOD,APOGEE,PERIGEE,DECAYED
49428.0,STARLINK-3121,PAYLOAD,2023-02-21 05:24:51,15.08832641,0.0001123,53.2136,183.1682,75.9889,284.1228,-0.00018332,-3.204e-05,0.0,0 STARLINK-3121,1 49428U 21104W   23052.22559736 -.00003204  00000-0 -18332-3 0  9997,2 49428  53.2136 183.1682 0001123  75.9889 284.1228 15.08832641 71767,6917.903,95.438,540.545,538.991,0.0
49428.0,STARLINK-3121,PAYLOAD,2023-02-21 14:57:10,15.08842488,9.82e-05,53.2135,181.3828,88.9437,271.1668,5.6607e-05,6.13e-06,0.0,0 STARLINK-3121,1 49428U 21104W   23052.62303396  .00000613  00000-0  56607-4 0  9997,2 49428  53.2135 181.3828 0000982  88.9437 271.1668 15.08842488 70755,6917.873,95.437,540.417,539.058,0.0
49428.0,STARLINK-3121,PAYLOAD,2023-02-21 18:07:56,15.08851628,8.9e-05,53.2135,180.7866,99.8305,260.2788,0.00021795,3.184e-05,0.0,0 STARLINK-3121,1 49428U 21104W   23052.75550986  .00003184  00000-0  21795-3 0  9995,2 49428  53.2135 180.7866 0000890  99.8305 260.2788 15.08851628 71842,6917.845,95.437,540.326,539.094,0.0
49428.0,STARLINK-3121,PAYLOAD,2023-02-22 02:04:52,15.08841838,0.000105,53.2132,179.3013,89.9886,270.1226,0.00027419,4.079e-05,0.0,0 STARLINK-3121,1 49428U 21104W   23053.08671607  .00004079  00000-0  27419-3 0  9999,2 49428  53.2132 179.3013 0001050  89.9886 270.1226 15.08841838 71894,6917.875,95.437,540.466,539.013,0.0
49428.0,STARLINK-3121,PAYLOAD,2023-02-22 13:12:34,15.08841851,0.000109,53.2133,177.2193,91.6495,268.4621,0.00023832,3.507e-05,0.0,0 STARLINK-3121,1 49428U 21104W   23053.55039662  .00003507  00000-0  23832-3 0  9990,2 49428  53.2133 177.2193 0001090  91.6495 268.4621 15.08841851 70894,6917.875,95.437,540.494,538.986,0.0
49428.0,STARLINK-3121,PAYLOAD,2023-02-23 06:41:49,15.08834357,0.0001014,53.2133,173.9488,88.8556,271.2552,0.00019216,2.771e-05,0.0,0 STARLINK-3121,1 49428U 21104W   23054.27904110  .00002771  00000-0  19216-3 0  9992,2 49428  53.2133 173.9488 0001014  88.8556 271.2552 15.08834357 72076,6917.898,95.438,540.464,539.061,0.0
49428.0,STARLINK-3121,PAYLOAD,2023-02-23 11:27:58,15.08835979,0.0001149,53.2135,173.0567,102.9276,257.1845,-1.7755e-05,-5.7e-06,0.0,0 STARLINK-3121,1 49428U 21104W   23054.47775984 -.00000570  00000-0 -17755-4 0  9993,2 49428  53.2135 173.0567 0001149 102.9276 257.1845 15.08835979 71037,6917.893,95.438,540.553,538.963,0.0
49428.0,STARLINK-3121,PAYLOAD,2023-02-23 14:38:44,15.08835297,0.000106,53.2132,172.4621,82.5577,277.5535,0.00014155,1.965e-05,0.0,0 STARLINK-3121,1 49428U 21104W   23054.61024110  .00001965  00000-0  14155-3 0  9994,2 49428  53.2132 172.4621 0001060  82.5577 277.5535 15.08835297 71054,6917.895,95.438,540.493,539.026,0.0
49428.0,STARLINK-3121,PAYLOAD,2023-02-24 08:07:59,15.08839679,0.0001146,53.2127,169.1904,101.6391,258.473,-4.8188e-05,-1.055e-05,0.0,0 STARLINK-3121,1 49428U 21104W   23055.33887949 -.00001055  00000-0 -48188-4 0  9997,2 49428  53.2127 169.1904 0001146 101.6391 258.4730 15.08839679 72231,6917.881,95.438,540.539,538.954,0.0
49428.0,STARLINK-3121,PAYLOAD,2023-02-24 11:18:45,15.08843446,0.0001197,53.2126,168.5959,99.9831,260.1296,6.3239e-06,-1.87e-06,0.0,0 STARLINK-3121,1 49428U 21104W   23055.47135763 -.00000187  00000-0  63239-5 0  9991,2 49428  53.2126 168.5959 0001197  99.9831 260.1296 15.08843446 71184,6917.87,95.437,540.563,538.907,0.0
49428.0,STARLINK-3121,PAYLOAD,2023-02-24 14:29:31,15.08844773,0.0001124,53.2128,168.0009,97.1948,262.9172,0.00016934,2.409e-05,0.0,0 STARLINK-3121,1 49428U 21104W   23055.60383694  .00002409  00000-0  16934-3 0  9990,2 49428  53.2128 168.0009 0001124  97.1948 262.9172 15.08844773 71206,6917.866,95.437,540.508,538.953,0.0
49428.0,STARLINK-3121,PAYLOAD,2023-02-25 06:23:24,15.08825691,0.0001376,53.2126,165.0291,84.7285,275.3864,4.1805e-05,3.77e-06,0.0,0 STARLINK-3121,1 49428U 21104W   23056.26625026  .00000377  00000-0  41805-4 0  9999,2 49428  53.2126 165.0291 0001376  84.7285 275.3864 15.08825691 72372,6917.924,95.438,540.741,538.837,0.0
49428.0,STARLINK-3121,PAYLOAD,2023-02-25 07:58:47,15.08818941,0.0001135,53.2149,164.7314,112.8093,247.3019,3.2231e-05,2.25e-06,0.0,0 STARLINK-3121,1 49428U 21104W   23056.33249844  .00000225  00000-0  32231-4 0  9992,2 49428  53.2149 164.7314 0001135 112.8093 247.3019 15.08818941 72384,6917.945,95.439,540.595,539.025,0.0
49428.0,STARLINK-3121,PAYLOAD,2023-02-25 12:44:57,15.08823862,0.0001094,53.214,163.838,106.6378,253.4734,6.6205e-05,7.66e-06,0.0,0 STARLINK-3121,1 49428U 21104W   23056.53121683  .00000766  00000-0  66205-4 0  9992,2 49428  53.2140 163.8380 0001094 106.6378 253.4734 15.08823862 71344,6917.93,95.439,540.552,539.038,0.0
49428.0,STARLINK-3121,PAYLOAD,2023-02-26 04:38:47,15.08846797,0.0001136,53.2128,160.8646,108.3452,251.7664,0.00039783,6.05e-05,0.0,0 STARLINK-3121,1 49428U 21104W   23057.19360617  .00006050  00000-0  39783-3 0  9999,2 49428  53.2128 160.8646 0001136 108.3452 251.7664 15.08846797 72516,6917.86,95.437,540.51,538.939,0.0
49428.0,STARLINK-3121,PAYLOAD,2023-02-26 09:24:56,15.08864854,0.000113,53.2126,159.9728,109.3752,250.7363,0.0014696,0.00023194,0.0,0 STARLINK-3121,1 49428U 21104W   23057.39232573  .00023194  00000-0  14696-2 0  9993,2 49428  53.2126 159.9728 0001130 109.3752 250.7363 15.08864854 72544,6917.804,95.436,540.451,538.888,0.0
49428.0,STARLINK-3121,PAYLOAD,2023-02-26 11:00:19,15.08870931,0.0001105,53.2125,159.6757,108.3361,251.7751,0.0017912,0.00028358,0.0,0 STARLINK-3121,1 49428U 21104W   23057.45856433  .00028358  00000-0  17912-2 0  9998,2 49428  53.2125 159.6757 0001105 108.3361 251.7751 15.08870931 71486,6917.786,95.436,540.415,538.886,0.0
49428.0,STARLINK-3121,PAYLOAD,2023-02-26 15:46:28,15.08885086,0.000109,53.2125,158.7838,105.8107,254.3005,0.0020113,0.00031907,0.0,0 STARLINK-3121,1 49428U 21104W   23057.65727872  .00031907  00000-0  20113-2 0  9995,2 49428  53.2125 158.7838 0001090 105.8107 254.3005 15.08885086 71511,6917.743,95.435,540.362,538.854,0.0
49428.0,STARLINK-3121,PAYLOAD,2023-02-27 06:04:57,15.0884568,0.000103,53.2124,156.107,82.3712,277.7397,0.00082005,0.00012789,0.0,0 STARLINK-3121,1 49428U 21104W   23058.25344131  .00012789  00000-0  82005-3 0  9991,2 49428  53.2124 156.1070 0001030  82.3712 277.7397 15.08845680 72672,6917.863,95.437,540.441,539.015,0.0
49428.0,STARLINK-3121,PAYLOAD,2023-02-27 09:15:43,15.08847325,9.79e-05,53.2125,155.5126,78.9069,281.2033,0.0015488,0.00024452,0.0,0 STARLINK-3121,1 49428U 21104W   23058.38592153  .00024452  00000-0  15488-2 0  9994,2 49428  53.2125 155.5126 0000979  78.9069 281.2033 15.08847325 71624,6917.858,95.437,540.4,539.046,0.0
49428.0,STARLINK-3121,PAYLOAD,2023-02-27 15:37:15,15.08907678,0.0001064,53.2124,154.3231,69.2654,290.8452,0.0062574,0.00100915,0.0,0 STARLINK-3121,1 49428U 21104W   23058.65087722  .00100915  00000-0  62574-2 0  9992,2 49428  53.2124 154.3231 0001064  69.2654 290.8452 15.08907678 72738,6917.674,95.433,540.275,538.802,0.0
49428.0,STARLINK-3121,PAYLOAD,2023-02-27 23:34:11,15.08856144,8e-05,53.2123,152.8361,95.5412,264.5671,0.0014021,0.00022107,0.0,0 STARLINK-3121,1 49428U 21104W   23058.98207840  .00022107  00000-0  14021-2 0  9993,2 49428  53.2123 152.8361 0000800  95.5412 264.5671 15.08856144 72782,6917.831,95.437,540.249,539.143,0.0
49428.0,STARLINK-3121,PAYLOAD,2023-02-28 12:17:16,15.08861241,0.0001088,53.2128,150.4568,100.6284,259.4831,0.0024795,0.00039417,0.0,0 STARLINK-3121,1 49428U 21104W   23059.51200080  .00039417  00000-0  24795-2 0  9993,2 49428  53.2128 150.4568 0001088 100.6284 259.4831 15.08861241 71799,6917.815,95.436,540.433,538.928,0.0
49428.0,STARLINK-3121,PAYLOAD,2023-02-28 23:24:59,15.08811912,0.000124,53.2136,148.376,109.4184,250.6942,0.0021046,0.0003334,0.0,0 STARLINK-3121,1 49428U 21104W   23059.97569398  .00033340  00000-0  21046-2 0  9998,2 49428  53.2136 148.3760 0001240 109.4184 250.6942 15.08811912 72937,6917.966,95.439,540.689,538.973,0.0
49428.0,STARLINK-3121,PAYLOAD,2023-03-01 10:32:43,15.08784095,0.0001416,53.2134,146.2938,120.0777,240.0355,0.0026987,0.00042857,0.0,0 STARLINK-3121,1 49428U 21104W   23060.43939538  .00042857  00000-0  26987-2 0  9990,2 49428  53.2134 146.2938 0001416 120.0777 240.0355 15.08784095 73002,6918.051,95.441,540.896,538.937,0.0
49428.0,STARLINK-3121,PAYLOAD,2023-03-01 12:08:07,15.08786355,0.000141,53.2134,145.9964,120.8285,239.2846,0.0022675,0.00035931,0.0,0 STARLINK-3121,1 49428U 21104W   23060.50563764  .00035931  00000-0  22675-2 0  9997,2 49428  53.2134 145.9964 0001410 120.8285 239.2846 15.08786355 71940,6918.044,95.441,540.885,538.934,0.0
49428.0,STARLINK-3121,PAYLOAD,2023-03-02 11:58:53,15.08891162,0.0001438,53.2143,141.5347,120.3658,239.7476,0.0028577,0.0004555,0.0,0 STARLINK-3121,1 49428U 21104W   23061.49923384  .00045550  00000-0  28577-2 0  9999,2 49428  53.2143 141.5347 0001438 120.3658 239.7476 15.08891162 72090,6917.724,95.434,540.584,538.594,0.0
49428.0,STARLINK-3121,PAYLOAD,2023-03-03 08:38:52,15.08926015,0.0002226,53.2148,137.6689,144.318,215.7961,0.0043378,0.00069595,0.0,0 STARLINK-3121,1 49428U 21104W   23062.36033405  .00069595  00000-0  43378-2 0  9993,2 49428  53.2148 137.6689 0002226 144.3180 215.7961 15.08926015 73294,6917.617,95.432,541.022,537.943,0.0
49428.0,STARLINK-3121,PAYLOAD,2023-03-03 10:14:15,15.08900125,0.000157,53.2156,137.3714,131.0264,229.0864,0.0020325,0.00032261,0.0,0 STARLINK-3121,1 49428U 21104W   23062.42657269  .00032261  00000-0  20325-2 0  9997,2 49428  53.2156 137.3714 0001570 131.0264 229.0864 15.08900125 73302,6917.697,95.434,540.648,538.476,0.0
49428.0,STARLINK-3121,PAYLOAD,2023-03-03 21:21:57,15.08865004,0.0002018,53.2145,135.2918,79.4393,280.6827,0.0021394,0.00033949,0.0,0 STARLINK-3121,1 49428U 21104W   23062.89025046  .00033949  00000-0  21394-2 0  9991,2 49428  53.2145 135.2918 0002018  79.4393 280.6827 15.08865004 73374,6917.804,95.436,541.065,538.273,0.0
